HIMAWARI-8              
1 40267U 14060A   23346.88395008 -.00000249  00000+0  00000+0 0  9993
2 40267   0.0146 263.6889 0000657  37.6581 238.8439  1.00270814 33569
